[{"OBJECT_NAME":"UWE-3","OBJECT_ID":"2013-066AG","EPOCH":"2026-03-09T20:43:24.491424","MEAN_MOTION":14.96183146,"ECCENTRICITY":0.00484622,"INCLINATION":97.8589,"RA_OF_ASC_NODE":24.3957,"ARG_OF_PERICENTER":291.5404,"MEAN_ANOMALY":68.0655,"EPHEMERIS_TYPE":0,"CLASSIFICATION_TYPE":"U","NORAD_CAT_ID":39446,"ELEMENT_SET_NO":999,"REV_AT_EPOCH":66272,"BSTAR":0.00057141515,"MEAN_MOTION_DOT":6.533e-5,"MEAN_MOTION_DDOT":0},{"OBJECT_NAME":"STARLINK-35152","OBJECT_ID":"2025-200L","EPOCH":"2026-03-09T18:26:25.621440","MEAN_MOTION":15.05644948,"ECCENTRICITY":6.85e-5,"INCLINATION":97.6016,"RA_OF_ASC_NODE":139.891,"ARG_OF_PERICENTER":109.8786,"MEAN_ANOMALY":250.2515,"EPHEMERIS_TYPE":0,"CLASSIFICATION_TYPE":"U","NORAD_CAT_ID":65530,"ELEMENT_SET_NO":999,"REV_AT_EPOCH":2914,"BSTAR":0.00012588731,"MEAN_MOTION_DOT":1.756e-5,"MEAN_MOTION_DDOT":0}]
