UWE-3                   
1 39446U 13066AG  26068.86347791  .00006533  00000+0  57142-3 0  9997
2 39446  97.8589  24.3957 0048462 291.5404  68.0655 14.96183146662729
STARLINK-35152          
1 65530U 25200L   26068.76835210  .00001756  00000+0  12589-3 0  9998
2 65530  97.6016 139.8910 0000685 109.8786 250.2515 15.05644948 29141
